NORAD_CAT_ID,OBJECT_NAME,OBJECT_TYPE,EPOCH,MEAN_MOTION,ECCENTRICITY,INCLINATION,RA_OF_ASC_NODE,ARG_OF_PERICENTER,MEAN_ANOMALY,BSTAR,MEAN_MOTION_DOT,MEAN_MOTION_DDOT,TLE_LINE0,TLE_LINE1,TLE_LINE2,SEMIMAJOR_AXIS,PERIOD,APOGEE,PERIGEE,DECAYED
55308.0,STARLINK-5292,PAYLOAD,2024-08-14 13:43:03,14.98335862,0.0003146,70.0028,7.0055,272.2026,87.8773,8.0763e-05,8.71e-06,0.0,0 STARLINK-5292,1 55308U 23010AR  24227.57156407  .00000871  00000-0  80763-4 0  9993,2 55308  70.0028   7.0055 0003146 272.2026  87.8773 14.98335862 87758,6950.175,96.107,574.226,569.853,0.0
55308.0,STARLINK-5292,PAYLOAD,2024-08-14 15:19:11,14.98333223,0.0002964,70.0015,6.8368,271.1594,88.9226,0.00015577,1.766e-05,0.0,0 STARLINK-5292,1 55308U 23010AR  24227.63832389  .00001766  00000-0  15577-3 0  9994,2 55308  70.0015   6.8368 0002964 271.1594  88.9226 14.98333223 88950,6950.183,96.107,574.108,569.988,0.0
55308.0,STARLINK-5292,PAYLOAD,2024-08-14 18:31:26,14.98341532,0.0003013,70.0025,6.4999,271.5258,88.5556,0.0001331,1.496e-05,0.0,0 STARLINK-5292,1 55308U 23010AR  24227.77183844  .00001496  00000-0  13310-3 0  9997,2 55308  70.0025   6.4999 0003013 271.5258  88.5556 14.98341532 88970,6950.157,96.106,574.116,569.928,0.0
55308.0,STARLINK-5292,PAYLOAD,2024-08-15 15:21:13,14.98320728,0.0003087,70.001,4.3098,264.7692,95.3115,8.7907e-05,9.56e-06,0.0,0 STARLINK-5292,1 55308U 23010AR  24228.63973517  .00000956  00000-0  87907-4 0  9991,2 55308  70.0010   4.3098 0003087 264.7692  95.3115 14.98320728 89105,6950.222,96.108,574.232,569.941,0.0
55308.0,STARLINK-5292,PAYLOAD,2024-08-16 10:34:49,14.98337487,0.0003063,70.003,2.2935,267.555,92.5259,3.2701e-05,2.97e-06,0.0,0 STARLINK-5292,1 55308U 23010AR  24229.44084739  .00000297  00000-0  32701-4 0  9990,2 55308  70.0030   2.2935 0003063 267.5550  92.5259 14.98337487 88031,6950.17,96.107,574.164,569.906,0.0
55308.0,STARLINK-5292,PAYLOAD,2024-08-16 18:35:28,14.98348875,0.0003032,70.002,1.4495,265.5945,94.4868,0.00010145,1.118e-05,0.0,0 STARLINK-5292,1 55308U 23010AR  24229.77463589  .00001118  00000-0  10145-3 0  9990,2 55308  70.0020   1.4495 0003032 265.5945  94.4868 14.98348875 88089,6950.135,96.106,574.107,569.892,0.0
55308.0,STARLINK-5292,PAYLOAD,2024-08-17 18:37:30,14.9832605,0.000291,69.9995,358.9242,263.866,96.2167,7.2732e-05,7.75e-06,0.0,0 STARLINK-5292,1 55308U 23010AR  24230.77604904  .00000775  00000-0  72732-4 0  9999,2 55308  69.9995 358.9242 0002910 263.8660  96.2167 14.98326050 88236,6950.205,96.107,574.093,570.048,0.0
55308.0,STARLINK-5292,PAYLOAD,2024-08-18 12:14:58,14.98344233,0.000304,70.0032,357.0748,272.2386,87.8425,4.5618e-05,4.52e-06,0.0,0 STARLINK-5292,1 55308U 23010AR  24231.51039647  .00000452  00000-0  45618-4 0  9993,2 55308  70.0032 357.0748 0003040 272.2386  87.8425 14.98344233 88344,6950.149,96.106,574.127,569.901,0.0
55308.0,STARLINK-5292,PAYLOAD,2024-08-18 18:39:28,14.98359417,0.0002733,70.0027,356.4056,247.7475,112.3394,0.00026671,3.093e-05,0.0,0 STARLINK-5292,1 55308U 23010AR  24231.77741625  .00003093  00000-0  26671-3 0  9998,2 55308  70.0027 356.4056 0002733 247.7475 112.3394 14.98359417 88380,6950.102,96.105,573.866,570.067,0.0
55308.0,STARLINK-5292,PAYLOAD,2024-08-19 10:40:51,14.98321622,0.0003434,69.9992,354.7157,274.3894,85.6873,-6.539e-05,-8.73e-06,0.0,0 STARLINK-5292,1 55308U 23010AR  24232.44504627 -.00000873  00000-0 -65390-4 0  9999,2 55308  69.9992 354.7157 0003434 274.3894  85.6873 14.98321622 88483,6950.219,96.108,574.471,569.697,0.0
55308.0,STARLINK-5292,PAYLOAD,2024-08-20 12:19:00,14.9834249,0.0003355,70.0003,352.0236,276.0214,84.0563,-0.00012149,-1.543e-05,0.0,0 STARLINK-5292,1 55308U 23010AR  24233.51319684 -.00001543  00000-0 -12149-3 0  9993,2 55308  70.0003 352.0236 0003355 276.0214  84.0563 14.98342490 88648,6950.154,96.106,574.351,569.687,0.0
55308.0,STARLINK-5292,PAYLOAD,2024-08-20 13:55:08,14.98344916,0.0003133,70.0008,351.856,272.7991,87.281,-0.00012079,-1.535e-05,0.0,0 STARLINK-5292,1 55308U 23010AR  24233.57995473 -.00001535  00000-0 -12079-3 0  9998,2 55308  70.0008 351.8560 0003133 272.7991  87.2810 14.98344916 89847,6950.147,96.106,574.189,569.834,0.0
55308.0,STARLINK-5292,PAYLOAD,2024-08-20 17:07:23,14.98351111,0.0003207,70.0005,351.5196,272.9573,87.1219,-4.7373e-05,-6.59e-06,0.0,0 STARLINK-5292,1 55308U 23010AR  24233.71346769 -.00000659  00000-0 -47373-4 0  9994,2 55308  70.0005 351.5196 0003207 272.9573  87.1219 14.98351111 88673,6950.128,96.106,574.222,569.764,0.0
55308.0,STARLINK-5292,PAYLOAD,2024-08-21 12:21:01,14.98317427,0.0002581,70.0017,349.5004,257.9458,102.1412,0.00014794,1.672e-05,0.0,0 STARLINK-5292,1 55308U 23010AR  24234.51460474  .00001672  00000-0  14794-3 0  9997,2 55308  70.0017 349.5004 0002581 257.9458 102.1412 14.98317427 88798,6950.232,96.108,573.891,570.303,0.0
55308.0,STARLINK-5292,PAYLOAD,2024-08-21 13:57:10,14.98317133,0.0002605,70.0013,349.3313,260.5749,99.5116,0.00012564,1.406e-05,0.0,0 STARLINK-5292,1 55308U 23010AR  24234.58136589  .00001406  00000-0  12564-3 0  9999,2 55308  70.0013 349.3313 0002605 260.5749  99.5116 14.98317133 89992,6950.233,96.108,573.908,570.287,0.0
55308.0,STARLINK-5292,PAYLOAD,2024-08-21 17:09:26,14.98317676,0.0002388,70.0019,348.9957,255.8372,104.2521,0.00010335,1.14e-05,0.0,0 STARLINK-5292,1 55308U 23010AR  24234.71488676  .00001140  00000-0  10335-3 0  9990,2 55308  70.0019 348.9957 0002388 255.8372 104.2521 14.98317676 90015,6950.231,96.108,573.756,570.436,0.0
